{
  "norad_id": 53162,
  "name": "STARLINK-4114",
  "history": [
    {
      "epoch": "2026-04-14T21:07:48.556704Z",
      "apogee_km": 540.6538808700116,
      "perigee_km": 538.845545283214,
      "latitude_deg": -2.509299005638875e-05,
      "longitude_deg": -158.3373352027771,
      "height_km": 540.7785802814437,
      "semi_major_axis_km": 6917.886713076613,
      "eccentricity": 0.0001307,
      "inclination_deg": 53.2178,
      "raan_deg": 1.6655,
      "arg_perigee_deg": 98.4603,
      "mean_anomaly_deg": 261.6537,
      "mean_motion_rev_day": 15.08837931
    },
    {
      "epoch": "2026-04-15T20:58:36.211008Z",
      "apogee_km": 540.665373431124,
      "perigee_km": 538.8598016387768,
      "latitude_deg": 2.6502375778382466e-05,
      "longitude_deg": -161.4754983674636,
      "height_km": 540.8071508692468,
      "semi_major_axis_km": 6917.89958753495,
      "eccentricity": 0.0001305,
      "inclination_deg": 53.2178,
      "raan_deg": 357.2052,
      "arg_perigee_deg": 99.482,
      "mean_anomaly_deg": 260.632,
      "mean_motion_rev_day": 15.08833719
    },
    {
      "epoch": "2026-04-16T20:49:23.321856Z",
      "apogee_km": 540.6478545023874,
      "perigee_km": 538.8270699439308,
      "latitude_deg": 1.19490570998038e-05,
      "longitude_deg": -164.61154015237045,
      "height_km": 540.7855659442333,
      "semi_major_axis_km": 6917.874462223159,
      "eccentricity": 0.0001316,
      "inclination_deg": 53.2176,
      "raan_deg": 352.7448,
      "arg_perigee_deg": 99.6299,
      "mean_anomaly_deg": 260.4842,
      "mean_motion_rev_day": 15.08841939
    },
    {
      "epoch": "2026-04-17T22:15:31.954752Z",
      "apogee_km": 540.5818634301222,
      "perigee_km": 538.710188054677,
      "latitude_deg": -6.133838504268353e-05,
      "longitude_deg": 168.04992791234025,
      "height_km": 540.764751505522,
      "semi_major_axis_km": 6917.783025742399,
      "eccentricity": 0.00013528,
      "inclination_deg": 53.2175,
      "raan_deg": 347.9869,
      "arg_perigee_deg": 103.781,
      "mean_anomaly_deg": 256.3332,
      "mean_motion_rev_day": 15.08871854
    },
    {
      "epoch": "2026-04-18T01:26:17.824128Z",
      "apogee_km": 540.5566529502512,
      "perigee_km": 538.7010314407407,
      "latitude_deg": 4.2433255579616185e-05,
      "longitude_deg": 119.63350909856376,
      "height_km": 540.7690790710595,
      "semi_major_axis_km": 6917.765842195496,
      "eccentricity": 0.00013412,
      "inclination_deg": 53.2175,
      "raan_deg": 347.3921,
      "arg_perigee_deg": 105.2744,
      "mean_anomaly_deg": 254.8397,
      "mean_motion_rev_day": 15.08877476
    },
    {
      "epoch": "2026-04-19T01:17:05.607168Z",
      "apogee_km": 540.6067850870904,
      "perigee_km": 538.8373350967013,
      "latitude_deg": -3.83280078801276e-05,
      "longitude_deg": 116.49490765018011,
      "height_km": 540.6661564449447,
      "semi_major_axis_km": 6917.859060091896,
      "eccentricity": 0.00012789,
      "inclination_deg": 53.2171,
      "raan_deg": 342.932,
      "arg_perigee_deg": 93.1295,
      "mean_anomaly_deg": 266.9843,
      "mean_motion_rev_day": 15.08846978
    },
    {
      "epoch": "2026-04-20T01:07:53.551776Z",
      "apogee_km": 540.7120953303638,
      "perigee_km": 538.820048840149,
      "latitude_deg": -5.322352240388356e-05,
      "longitude_deg": 113.35467891209804,
      "height_km": 540.7071845393235,
      "semi_major_axis_km": 6917.903072085256,
      "eccentricity": 0.00013675,
      "inclination_deg": 53.2172,
      "raan_deg": 338.4709,
      "arg_perigee_deg": 92.7526,
      "mean_anomaly_deg": 267.3622,
      "mean_motion_rev_day": 15.08832579
    },
    {
      "epoch": "2026-04-21T20:03:19.396224Z",
      "apogee_km": 540.6578904597745,
      "perigee_km": 538.8841388448172,
      "latitude_deg": 4.453580620902463e-06,
      "longitude_deg": 179.7055125983039,
      "height_km": 540.6358284573315,
      "semi_major_axis_km": 6917.908014652296,
      "eccentricity": 0.0001282,
      "inclination_deg": 53.2181,
      "raan_deg": 330.4422,
      "arg_perigee_deg": 87.9922,
      "mean_anomaly_deg": 272.1217,
      "mean_motion_rev_day": 15.08830962
    },
    {
      "epoch": "2026-04-22T13:32:33.995040Z",
      "apogee_km": 540.6547888010709,
      "perigee_km": 538.8464529769708,
      "latitude_deg": 4.1341486997058405e-05,
      "longitude_deg": -86.59457170475834,
      "height_km": 540.580653882419,
      "semi_major_axis_km": 6917.887620889021,
      "eccentricity": 0.0001307,
      "inclination_deg": 53.2173,
      "raan_deg": 327.1711,
      "arg_perigee_deg": 85.8308,
      "mean_anomaly_deg": 274.2834,
      "mean_motion_rev_day": 15.08837634
    },
    {
      "epoch": "2026-04-24T19:35:40.239744Z",
      "apogee_km": 540.633938605326,
      "perigee_km": 538.8325251969391,
      "latitude_deg": -1.748843100528833e-05,
      "longitude_deg": 170.29883551844966,
      "height_km": 540.5207146438466,
      "semi_major_axis_km": 6917.870231901132,
      "eccentricity": 0.0001302,
      "inclination_deg": 53.2171,
      "raan_deg": 317.0604,
      "arg_perigee_deg": 83.0947,
      "mean_anomaly_deg": 277.0193,
      "mean_motion_rev_day": 15.08843323
    },
    {
      "epoch": "2026-04-25T19:26:27.158784Z",
      "apogee_km": 540.615866874934,
      "perigee_km": 538.8545766072793,
      "latitude_deg": 2.709484584051322e-05,
      "longitude_deg": 167.16423698615844,
      "height_km": 540.572070007754,
      "semi_major_axis_km": 6917.872221741107,
      "eccentricity": 0.0001273,
      "inclination_deg": 53.2173,
      "raan_deg": 312.6006,
      "arg_perigee_deg": 86.1605,
      "mean_anomaly_deg": 273.9533,
      "mean_motion_rev_day": 15.08842672
    },
    {
      "epoch": "2026-04-26T20:52:37.370208Z",
      "apogee_km": 540.6838884633871,
      "perigee_km": 538.7847944227342,
      "latitude_deg": -2.220548568490179e-05,
      "longitude_deg": 139.81892682572192,
      "height_km": 540.5920502604818,
      "semi_major_axis_km": 6917.87134144306,
      "eccentricity": 0.00013726,
      "inclination_deg": 53.2166,
      "raan_deg": 307.8425,
      "arg_perigee_deg": 87.7124,
      "mean_anomaly_deg": 272.4025,
      "mean_motion_rev_day": 15.0884296
    },
    {
      "epoch": "2026-04-27T19:08:01.247424Z",
      "apogee_km": 540.6925770271582,
      "perigee_km": 538.7804767843209,
      "latitude_deg": -3.8458531917911095e-05,
      "longitude_deg": 160.89157964964036,
      "height_km": 540.6510945820713,
      "semi_major_axis_km": 6917.873526905739,
      "eccentricity": 0.0001382,
      "inclination_deg": 53.2178,
      "raan_deg": 303.6787,
      "arg_perigee_deg": 91.1293,
      "mean_anomaly_deg": 268.9857,
      "mean_motion_rev_day": 15.08842245
    },
    {
      "epoch": "2026-04-28T18:58:48.277920Z",
      "apogee_km": 540.6845602297481,
      "perigee_km": 538.7932129623514,
      "latitude_deg": 1.9367786553647493e-05,
      "longitude_deg": 157.75592623070108,
      "height_km": 540.6536508662373,
      "semi_major_axis_km": 6917.875886596049,
      "eccentricity": 0.0001367,
      "inclination_deg": 53.218,
      "raan_deg": 299.2183,
      "arg_perigee_deg": 91.1516,
      "mean_anomaly_deg": 268.9633,
      "mean_motion_rev_day": 15.08841473
    },
    {
      "epoch": "2026-04-29T18:49:35.769792Z",
      "apogee_km": 540.6874123756961,
      "perigee_km": 538.8195819414641,
      "latitude_deg": 1.297505207019192e-05,
      "longitude_deg": 154.61859702202102,
      "height_km": 540.6451919172104,
      "semi_major_axis_km": 6917.89049715858,
      "eccentricity": 0.000135,
      "inclination_deg": 53.2184,
      "raan_deg": 294.7582,
      "arg_perigee_deg": 89.7467,
      "mean_anomaly_deg": 270.368,
      "mean_motion_rev_day": 15.08836693
    },
    {
      "epoch": "2026-04-29T18:49:35.770656Z",
      "apogee_km": 540.6877582702209,
      "perigee_km": 538.8192360469384,
      "latitude_deg": 8.358131020342828e-06,
      "longitude_deg": 154.61868997950992,
      "height_km": 540.6451903880411,
      "semi_major_axis_km": 6917.89049715858,
      "eccentricity": 0.00013505,
      "inclination_deg": 53.2184,
      "raan_deg": 294.7583,
      "arg_perigee_deg": 89.7467,
      "mean_anomaly_deg": 270.368,
      "mean_motion_rev_day": 15.08836693
    },
    {
      "epoch": "2026-05-02T04:03:28.806624Z",
      "apogee_km": 540.7304847282994,
      "perigee_km": 538.7658053471087,
      "latitude_deg": 3.155180564355123e-05,
      "longitude_deg": 3.089811855963931,
      "height_km": 540.7010330635738,
      "semi_major_axis_km": 6917.885145037703,
      "eccentricity": 0.000142,
      "inclination_deg": 53.2188,
      "raan_deg": 284.0508,
      "arg_perigee_deg": 93.3334,
      "mean_anomaly_deg": 266.7821,
      "mean_motion_rev_day": 15.08838444
    },
    {
      "epoch": "2026-05-03T19:48:07.216128Z",
      "apogee_km": 540.6665870124816,
      "perigee_km": 538.8236632143507,
      "latitude_deg": -5.700732443263746e-05,
      "longitude_deg": 117.8644738880096,
      "height_km": 540.6692609046012,
      "semi_major_axis_km": 6917.882125113416,
      "eccentricity": 0.0001332,
      "inclination_deg": 53.2178,
      "raan_deg": 276.6178,
      "arg_perigee_deg": 91.7624,
      "mean_anomaly_deg": 268.352,
      "mean_motion_rev_day": 15.08839432
    }
  ]
}